{
  "type": "FeatureCollection",
  "features": [
    {
      "type": "Feature",
      "properties": {
        "norad_id": 66425,
        "name": "STARLINK-35555",
        "group": "last-30-days",
        "lat": -37.28502690297279,
        "lon": -49.075069473385014,
        "alt_km": 446.03750393135033,
        "timestamp": "2025-12-07T20:38:12.865911+00:00",
        "meta_object_name": "STARLINK-35555",
        "meta_object_id": "2025-259D",
        "meta_epoch": "2025-12-07T06:00:04.999968",
        "meta_mean_motion": 15.40621898,
        "meta_eccentricity": 0.00016782,
        "meta_inclination": 43.0005,
        "meta_ra_of_asc_node": 79.6493,
        "meta_arg_of_pericenter": 259.4859,
        "meta_mean_anomaly": 196.8728,
        "meta_ephemeris_type": 0,
        "meta_classification_type": "U",
        "meta_norad_cat_id": 66425,
        "meta_element_set_no": 999,
        "meta_rev_at_epoch": 539,
        "meta_bstar": 0.0019990326,
        "meta_mean_motion_dot": 0.00083907,
        "meta_mean_motion_ddot": 0,
        "tle_line1": "1 66425U 25259D   25341.25005787  .00083907  00000+0  19990-2 0  9991",
        "tle_line2": "2 66425  43.0005  79.6493 0001678 259.4859 196.8728 15.40621898  5391"
      },
      "geometry": {
        "type": "Point",
        "coordinates": [
          -49.075069473385014,
          -37.28502690297279
        ]
      }
    },
    {
      "type": "Feature",
      "properties": {
        "norad_id": 66426,
        "name": "STARLINK-35589",
        "group": "last-30-days",
        "lat": -41.213759289457684,
        "lon": -33.862091533290545,
        "alt_km": 446.357871156757,
        "timestamp": "2025-12-07T20:38:12.865923+00:00",
        "meta_object_name": "STARLINK-35589",
        "meta_object_id": "2025-259E",
        "meta_epoch": "2025-12-07T06:00:04.999968",
        "meta_mean_motion": 15.40641514,
        "meta_eccentricity": 0.00013898,
        "meta_inclination": 43.0007,
        "meta_ra_of_asc_node": 79.6203,
        "meta_arg_of_pericenter": 273.3247,
        "meta_mean_anomaly": 195.4308,
        "meta_ephemeris_type": 0,
        "meta_classification_type": "U",
        "meta_norad_cat_id": 66426,
        "meta_element_set_no": 999,
        "meta_rev_at_epoch": 539,
        "meta_bstar": 0.0019576297,
        "meta_mean_motion_dot": 0.00082197,
        "meta_mean_motion_ddot": 0,
        "tle_line1": "1 66426U 25259E   25341.25005787  .00082197  00000+0  19576-2 0  9992",
        "tle_line2": "2 66426  43.0007  79.6203 0001389 273.3247 195.4308 15.40641514  5394"
      },
      "geometry": {
        "type": "Point",
        "coordinates": [
          -33.862091533290545,
          -41.213759289457684
        ]
      }
    },
    {
      "type": "Feature",
      "properties": {
        "norad_id": 66427,
        "name": "STARLINK-35611",
        "group": "last-30-days",
        "lat": -42.93185693413084,
        "lon": -17.26570226328274,
        "alt_km": 446.1130388107749,
        "timestamp": "2025-12-07T20:38:12.865933+00:00",
        "meta_object_name": "STARLINK-35611",
        "meta_object_id": "2025-259F",
        "meta_epoch": "2025-12-07T06:00:04.999968",
        "meta_mean_motion": 15.4069794,
        "meta_eccentricity": 0.00019261,
        "meta_inclination": 43.0007,
        "meta_ra_of_asc_node": 79.5892,
        "meta_arg_of_pericenter": 305.0922,
        "meta_mean_anomaly": 175.9935,
        "meta_ephemeris_type": 0,
        "meta_classification_type": "U",
        "meta_norad_cat_id": 66427,
        "meta_element_set_no": 999,
        "meta_rev_at_epoch": 539,
        "meta_bstar": 0.0022130996,
        "meta_mean_motion_dot": 0.00093275,
        "meta_mean_motion_ddot": 0,
        "tle_line1": "1 66427U 25259F   25341.25005787  .00093275  00000+0  22131-2 0  9993",
        "tle_line2": "2 66427  43.0007  79.5892 0001926 305.0922 175.9935 15.40697940  5391"
      },
      "geometry": {
        "type": "Point",
        "coordinates": [
          -17.26570226328274,
          -42.93185693413084
        ]
      }
    },
    {
      "type": "Feature",
      "properties": {
        "norad_id": 66428,
        "name": "STARLINK-35610",
        "group": "last-30-days",
        "lat": -42.19900520434417,
        "lon": -0.6103218212220893,
        "alt_km": 446.11010116436137,
        "timestamp": "2025-12-07T20:38:12.865944+00:00",
        "meta_object_name": "STARLINK-35610",
        "meta_object_id": "2025-259G",
        "meta_epoch": "2025-12-07T06:00:04.999968",
        "meta_mean_motion": 15.40607772,
        "meta_eccentricity": 0.0001883,
        "meta_inclination": 43.0007,
        "meta_ra_of_asc_node": 79.5591,
        "meta_arg_of_pericenter": 260.2228,
        "meta_mean_anomaly": 233.3542,
        "meta_ephemeris_type": 0,
        "meta_classification_type": "U",
        "meta_norad_cat_id": 66428,
        "meta_element_set_no": 999,
        "meta_rev_at_epoch": 539,
        "meta_bstar": 0.0021639676,
        "meta_mean_motion_dot": 0.00090896,
        "meta_mean_motion_ddot": 0,
        "tle_line1": "1 66428U 25259G   25341.25005787  .00090896  00000+0  21640-2 0  9994",
        "tle_line2": "2 66428  43.0007  79.5591 0001883 260.2228 233.3542 15.40607772  5398"
      },
      "geometry": {
        "type": "Point",
        "coordinates": [
          -0.6103218212220893,
          -42.19900520434417
        ]
      }
    },
    {
      "type": "Feature",
      "properties": {
        "norad_id": 66429,
        "name": "STARLINK-35533",
        "group": "last-30-days",
        "lat": -39.086328296143066,
        "lon": 15.3589348552392,
        "alt_km": 446.44218058195383,
        "timestamp": "2025-12-07T20:38:12.865955+00:00",
        "meta_object_name": "STARLINK-35533",
        "meta_object_id": "2025-259H",
        "meta_epoch": "2025-12-07T06:00:04.999968",
        "meta_mean_motion": 15.40694377,
        "meta_eccentricity": 0.0001466,
        "meta_inclination": 43.0005,
        "meta_ra_of_asc_node": 79.5268,
        "meta_arg_of_pericenter": 270.9378,
        "meta_mean_anomaly": 235.1528,
        "meta_ephemeris_type": 0,
        "meta_classification_type": "U",
        "meta_norad_cat_id": 66429,
        "meta_element_set_no": 999,
        "meta_rev_at_epoch": 539,
        "meta_bstar": -0.00089508257,
        "meta_mean_motion_dot": -0.00037503,
        "meta_mean_motion_ddot": 0,
        "tle_line1": "1 66429U 25259H   25341.25005787 -.00037503  00000+0 -89508-3 0  9991",
        "tle_line2": "2 66429  43.0005  79.5268 0001466 270.9378 235.1528 15.40694377  5390"
      },
      "geometry": {
        "type": "Point",
        "coordinates": [
          15.3589348552392,
          -39.086328296143066
        ]
      }
    },
    {
      "type": "Feature",
      "properties": {
        "norad_id": 66430,
        "name": "STARLINK-35470",
        "group": "last-30-days",
        "lat": -34.09403760823967,
        "lon": 29.399428007865907,
        "alt_km": 446.48098460644906,
        "timestamp": "2025-12-07T20:38:12.865965+00:00",
        "meta_object_name": "STARLINK-35470",
        "meta_object_id": "2025-259J",
        "meta_epoch": "2025-12-07T06:00:04.999968",
        "meta_mean_motion": 15.4091686,
        "meta_eccentricity": 0.00020937,
        "meta_inclination": 43.0006,
        "meta_ra_of_asc_node": 79.4984,
        "meta_arg_of_pericenter": 270.7906,
        "meta_mean_anomaly": 247.6321,
        "meta_ephemeris_type": 0,
        "meta_classification_type": "U",
        "meta_norad_cat_id": 66430,
        "meta_element_set_no": 999,
        "meta_rev_at_epoch": 539,
        "meta_bstar": -0.0094522167,
        "meta_mean_motion_dot": -0.00378939,
        "meta_mean_motion_ddot": 0,
        "tle_line1": "1 66430U 25259J   25341.25005787 -.00378939  00000+0 -94522-2 0  9995",
        "tle_line2": "2 66430  43.0006  79.4984 0002093 270.7906 247.6321 15.40916860  5392"
      },
      "geometry": {
        "type": "Point",
        "coordinates": [
          29.399428007865907,
          -34.09403760823967
        ]
      }
    },
    {
      "type": "Feature",
      "properties": {
        "norad_id": 66431,
        "name": "STARLINK-35439",
        "group": "last-30-days",
        "lat": -27.68217210775207,
        "lon": 41.69113791854037,
        "alt_km": 448.33959226300703,
        "timestamp": "2025-12-07T20:38:12.865975+00:00",
        "meta_object_name": "STARLINK-35439",
        "meta_object_id": "2025-259K",
        "meta_epoch": "2025-12-07T06:00:04.999968",
        "meta_mean_motion": 15.42733385,
        "meta_eccentricity": 0.00011722,
        "meta_inclination": 43.0005,
        "meta_ra_of_asc_node": 79.4705,
        "meta_arg_of_pericenter": 253.5914,
        "meta_mean_anomaly": 275.7825,
        "meta_ephemeris_type": 0,
        "meta_classification_type": "U",
        "meta_norad_cat_id": 66431,
        "meta_element_set_no": 999,
        "meta_rev_at_epoch": 539,
        "meta_bstar": -0.053714028,
        "meta_mean_motion_dot": -0.0212373,
        "meta_mean_motion_ddot": 0,
        "tle_line1": "1 66431U 25259K   25341.25005787 -.02123730  00000+0 -53714-1 0  9992",
        "tle_line2": "2 66431  43.0005  79.4705 0001172 253.5914 275.7825 15.42733385  5390"
      },
      "geometry": {
        "type": "Point",
        "coordinates": [
          41.69113791854037,
          -27.68217210775207
        ]
      }
    }
  ]
}